ISS OBJECT YP           
1 69799U 98067YP  26193.27554369  .00026907  00000+0  47130-3 0  9993
2 69799  51.6300 175.8485 0009809 294.2162  65.7802 15.50345295  1533
STARLINK-37520          
1 69819U 26154A   26193.25002315 -.01711185  83519-3 -44463-2 0  9998
2 69819  53.1599 307.9069 0000730  84.5929 330.8029 15.94469311  2198
STARLINK-37553          
1 69820U 26154B   26193.25002315 -.01711450  83650-3 -44172-2 0  9998
2 69820  53.1598 307.9010 0000828  76.1118 342.0589 15.94595098  2198
STARLINK-37561          
1 69821U 26154C   26193.25002315 -.01699958  82714-3 -43602-2 0  9994
2 69821  53.1599 307.8953 0000848  77.6986 343.2716 15.94710043  2190
STARLINK-37521          
1 69822U 26154D   26193.25002315 -.01705371  83316-3 -43426-2 0  9995
2 69822  53.1598 307.8905 0000752  83.8889 339.3671 15.94845943  2196
STARLINK-37628          
1 69823U 26154E   26193.25002315 -.01705573  83439-3 -43145-2 0  9994
2 69823  53.1597 307.8849 0000878  81.7704 344.1723 15.94969060  2194
STARLINK-37695          
1 69824U 26154F   26193.25002315 -.01714404  84347-3 -43080-2 0  9995
2 69824  53.1597 307.8792 0000751  81.3447 347.3308 15.95094609  2195
STARLINK-37690          
1 69825U 26154G   26193.25002315 -.01711725  84213-3 -42719-2 0  9999
2 69825  53.1596 307.8745 0000764  80.6441 350.3510 15.95221487  2198
STARLINK-37710          
1 69826U 26154H   26193.25002315 -.01714501  84575-3 -42501-2 0  9995
2 69826  53.1595 307.8688 0000834  80.9685 352.7199 15.95346752  2197
STARLINK-38031          
1 69827U 26154J   26193.25002315 -.01710320  84299-3 -42122-2 0  9993
2 69827  53.1595 307.8634 0000835  77.3467 358.8054 15.95466937  2193
STARLINK-38001          
1 69828U 26154K   26193.25002315 -.01705282  83944-3 -41727-2 0  9991
2 69828  53.1594 307.8586 0000920  75.0161   3.5567 15.95585514  2196
STARLINK-37622          
1 69829U 26154L   26193.25002315 -.01697419  83332-3 -41270-2 0  9998
2 69829  53.1594 307.8535 0000833  82.9960 358.0279 15.95702363  2199
STARLINK-37621          
1 69830U 26154M   26193.25002315 -.01691779  82926-3 -40860-2 0  9995
2 69830  53.1593 307.8489 0000831  81.6675   1.5642 15.95824580  2195
STARLINK-37918          
1 69831U 26154N   26193.25002315 -.01692223  83071-3 -40602-2 0  9997
2 69831  53.1594 307.8444 0000924  81.9403   3.4625 15.95945784  2195
STARLINK-37887          
1 69832U 26154P   26193.25002315 -.01693121  83259-3 -40352-2 0  9996
2 69832  53.1593 307.8400 0000821  80.8044   6.7358 15.96069395  2197
STARLINK-37624          
1 69833U 26154Q   26193.25002315 -.01684907  82610-3 -39915-2 0  9992
2 69833  53.1592 307.8343 0000885  80.2183  10.0857 15.96178997  2192
STARLINK-37769          
1 69834U 26154R   26193.25002315 -.01688144  83003-3 -39739-2 0  9991
2 69834  53.1591 307.8289 0000918  83.1690   9.7293 15.96295425  2198
STARLINK-37247          
1 69835U 26154S   26193.25002315 -.01691719  83432-3 -39566-2 0  9998
2 69835  53.1592 307.8238 0000825  81.3246  14.0637 15.96414711  2291
STARLINK-37569          
1 69836U 26154T   26193.25002315 -.01687643  83166-3 -39209-2 0  9998
2 69836  53.1590 307.8194 0000851  81.4526  16.0390 15.96535682  2190
STARLINK-37587          
1 69837U 26154U   26193.25002315 -.01677558  82342-3 -38749-2 0  9996
2 69837  53.1590 307.8133 0000938  77.6034  22.8169 15.96640061  2165
STARLINK-37590          
1 69838U 26154V   26193.25002315 -.01670951  81842-3 -38355-2 0  9994
2 69838  53.1590 307.8085 0000922  82.8815  19.8884 15.96753257  2038
STARLINK-37589          
1 69839U 26154W   26193.25002315 -.01672468  82078-3 -38148-2 0  9992
2 69839  53.1589 307.8033 0000871  81.9340  23.4080 15.96868644  2166
STARLINK-37487          
1 69840U 26154X   26193.25002315 -.01273102  53021-3 -20775-2 0  9999
2 69840  53.1581 307.6404 0000873  69.5989 113.3216 16.02675750  2165
STARLINK-37433          
1 69841U 26154Y   26193.25002315 -.01298769  55110-3 -20950-2 0  9992
2 69841  53.1581 307.6299 0000791  77.1124 110.8228 16.02875233  2290
STARLINK-37588          
1 69842U 26154Z   26193.25002315 -.01310011  56116-3 -20872-2 0  9998
2 69842  53.1580 307.6187 0000745  79.5378 113.7948 16.03084824  2191
STARLINK-37579          
1 69843U 26154AA  26193.25002315 -.01344528  59053-3 -21034-2 0  9993
2 69843  53.1579 307.6031 0000724  74.6512 125.9731 16.03396452  2199
STARLINK-37584          
1 69844U 26154AB  26193.25002315 -.01361449  60537-3 -21084-2 0  9999
2 69844  53.1581 307.5938 0000719  75.0901 129.9017 16.03568433  2190
STARLINK-37606          
1 69845U 26154AC  26193.25002315 -.01432672  66643-3 -21887-2 0  9992
2 69845  53.1579 307.5826 0000668  75.3353 134.9574 16.03806775  2199
STARLINK-37603          
1 69846U 26154AD  26193.25002315 -.01583998  80463-3 -23782-2 0  9993
2 69846  53.1579 307.5689 0000960  68.7542 147.9680 16.04117910  2197
