OBJECT_NAME,OBJECT_ID,EPOCH,MEAN_MOTION,ECCENTRICITY,INCLINATION,RA_OF_ASC_NODE,ARG_OF_PERICENTER,MEAN_ANOMALY,EPHEMERIS_TYPE,CLASSIFICATION_TYPE,NORAD_CAT_ID,ELEMENT_SET_NO,REV_AT_EPOCH,BSTAR,MEAN_MOTION_DOT,MEAN_MOTION_DDOT
ISS OBJECT YP,1998-067YP,2026-07-12T06:36:46.974816,15.50345295,.00098096,51.6300,175.8485,294.2162,65.7802,0,U,69799,999,153,.47130354E-3,.26907E-3,0
STARLINK-37520,2026-154A,2026-07-12T06:00:02.000160,15.94469311,.00007302,53.1599,307.9069,84.5929,330.8029,0,U,69819,999,219,-.44463169E-2,-.1711185E-1,.83519172E-3
STARLINK-37553,2026-154B,2026-07-12T06:00:02.000160,15.94595098,.0000828,53.1598,307.9010,76.1118,342.0589,0,U,69820,999,219,-.44171959E-2,-.171145E-1,.83650138E-3
STARLINK-37561,2026-154C,2026-07-12T06:00:02.000160,15.94710043,.00008482,53.1599,307.8953,77.6986,343.2716,0,U,69821,999,219,-.43602272E-2,-.1699958E-1,.82714036E-3
STARLINK-37521,2026-154D,2026-07-12T06:00:02.000160,15.94845943,.00007523,53.1598,307.8905,83.8889,339.3671,0,U,69822,999,219,-.43425932E-2,-.1705371E-1,.83315896E-3
STARLINK-37628,2026-154E,2026-07-12T06:00:02.000160,15.94969060,.00008783,53.1597,307.8849,81.7704,344.1723,0,U,69823,999,219,-.43144663E-2,-.1705573E-1,.83439169E-3
STARLINK-37695,2026-154F,2026-07-12T06:00:02.000160,15.95094609,.00007512,53.1597,307.8792,81.3447,347.3308,0,U,69824,999,219,-.43079887E-2,-.1714404E-1,.84346591E-3
STARLINK-37690,2026-154G,2026-07-12T06:00:02.000160,15.95221487,.00007643,53.1596,307.8745,80.6441,350.3510,0,U,69825,999,219,-.42718836E-2,-.1711725E-1,.84213222E-3
STARLINK-37710,2026-154H,2026-07-12T06:00:02.000160,15.95346752,.00008346,53.1595,307.8688,80.9685,352.7199,0,U,69826,999,219,-.42500821E-2,-.1714501E-1,.84574522E-3
STARLINK-38031,2026-154J,2026-07-12T06:00:02.000160,15.95466937,.00008355,53.1595,307.8634,77.3467,358.8054,0,U,69827,999,219,-.42121544E-2,-.171032E-1,.84298638E-3
STARLINK-38001,2026-154K,2026-07-12T06:00:02.000160,15.95585514,.00009204,53.1594,307.8586,75.0161,3.5567,0,U,69828,999,219,-.41727065E-2,-.1705282E-1,.839437E-3
STARLINK-37622,2026-154L,2026-07-12T06:00:02.000160,15.95702363,.00008333,53.1594,307.8535,82.9960,358.0279,0,U,69829,999,219,-.41270421E-2,-.1697419E-1,.83331515E-3
STARLINK-37621,2026-154M,2026-07-12T06:00:02.000160,15.95824580,.00008317,53.1593,307.8489,81.6675,1.5642,0,U,69830,999,219,-.40859727E-2,-.1691779E-1,.82926264E-3
STARLINK-37918,2026-154N,2026-07-12T06:00:02.000160,15.95945784,.00009242,53.1594,307.8444,81.9403,3.4625,0,U,69831,999,219,-.40602134E-2,-.1692223E-1,.83070864E-3
STARLINK-37887,2026-154P,2026-07-12T06:00:02.000160,15.96069395,.00008214,53.1593,307.8400,80.8044,6.7358,0,U,69832,999,219,-.40352152E-2,-.1693121E-1,.83259054E-3
STARLINK-37624,2026-154Q,2026-07-12T06:00:02.000160,15.96178997,.00008852,53.1592,307.8343,80.2183,10.0857,0,U,69833,999,219,-.39914503E-2,-.1684907E-1,.82609557E-3
STARLINK-37769,2026-154R,2026-07-12T06:00:02.000160,15.96295425,.00009189,53.1591,307.8289,83.1690,9.7293,0,U,69834,999,219,-.39738973E-2,-.1688144E-1,.83003327E-3
STARLINK-37247,2026-154S,2026-07-12T06:00:02.000160,15.96414711,.00008255,53.1592,307.8238,81.3246,14.0637,0,U,69835,999,229,-.39565996E-2,-.1691719E-1,.83431817E-3
STARLINK-37569,2026-154T,2026-07-12T06:00:02.000160,15.96535682,.00008511,53.1590,307.8194,81.4526,16.0390,0,U,69836,999,219,-.3920897E-2,-.1687643E-1,.83166464E-3
STARLINK-37587,2026-154U,2026-07-12T06:00:02.000160,15.96640061,.00009384,53.1590,307.8133,77.6034,22.8169,0,U,69837,999,216,-.38748964E-2,-.1677558E-1,.82341762E-3
STARLINK-37590,2026-154V,2026-07-12T06:00:02.000160,15.96753257,.0000922,53.1590,307.8085,82.8815,19.8884,0,U,69838,999,203,-.38355472E-2,-.1670951E-1,.81841747E-3
STARLINK-37589,2026-154W,2026-07-12T06:00:02.000160,15.96868644,.00008719,53.1589,307.8033,81.9340,23.4080,0,U,69839,999,216,-.38148417E-2,-.1672468E-1,.82078249E-3
STARLINK-37487,2026-154X,2026-07-12T06:00:02.000160,16.02675750,.00008738,53.1581,307.6404,69.5989,113.3216,0,U,69840,999,216,-.20774534E-2,-.1273102E-1,.53021094E-3
STARLINK-37433,2026-154Y,2026-07-12T06:00:02.000160,16.02875233,.00007911,53.1581,307.6299,77.1124,110.8228,0,U,69841,999,229,-.20949701E-2,-.1298769E-1,.55109602E-3
STARLINK-37588,2026-154Z,2026-07-12T06:00:02.000160,16.03084824,.00007458,53.1580,307.6187,79.5378,113.7948,0,U,69842,999,219,-.20871697E-2,-.1310011E-1,.56115512E-3
STARLINK-37579,2026-154AA,2026-07-12T06:00:02.000160,16.03396452,.00007248,53.1579,307.6031,74.6512,125.9731,0,U,69843,999,219,-.21034191E-2,-.1344528E-1,.59052897E-3
STARLINK-37584,2026-154AB,2026-07-12T06:00:02.000160,16.03568433,.00007193,53.1581,307.5938,75.0901,129.9017,0,U,69844,999,219,-.21084257E-2,-.1361449E-1,.60536899E-3
STARLINK-37606,2026-154AC,2026-07-12T06:00:02.000160,16.03806775,.00006687,53.1579,307.5826,75.3353,134.9574,0,U,69845,999,219,-.21887288E-2,-.1432672E-1,.66643224E-3
STARLINK-37603,2026-154AD,2026-07-12T06:00:02.000160,16.04117910,.00009606,53.1579,307.5689,68.7542,147.9680,0,U,69846,999,219,-.23781994E-2,-.1583998E-1,.80462655E-3
